start=new Date('2021-09-21T00:00:00.000Z').valueOf();
sats=[{"CENTER_NAME":"EARTH","MEAN_MOTION":"15.06392717","OBJECT_TYPE":"PAYLOAD","MEAN_ANOMALY":"284.8346","NORAD_CAT_ID":"48123","MEAN_ELEMENT_THEORY":"SGP4","APOAPSIS":"547.528","TLE_LINE1":"1 48123U 21027AH  21263.44600294  .00000829  00000-0  74515-4 0  9998","ARG_OF_PERICENTER":"75.2690","PERIOD":"95.593","SITE":"AFETR","ELEMENT_SET_NO":"999","TLE_LINE2":"2 48123  53.0547 274.5438 0000422  75.2690 284.8346 15.06392717 26839","RCS_SIZE":"LARGE","REV_AT_EPOCH":"2683","COUNTRY_CODE":"US","SEMIMAJOR_AXIS":"6925.371","PERIAPSIS":"546.944","FILE":"3121163","INCLINATION":"53.0547","OBJECT_ID":"2021-027AH","ECCENTRICITY":"0.00004220","BSTAR":"0.00007451500000","LAUNCH_DATE":"2021-04-07","EPHEMERIS_TYPE":"0","EPOCH":"2021-09-20T10:42:14.654016","MEAN_MOTION_DDOT":"0.0000000000000","MEAN_MOTION_DOT":"0.00000829","REF_FRAME":"TEME","DECAY_DATE":null,"RA_OF_ASC_NODE":"274.5438","TIME_SYSTEM":"UTC","CLASSIFICATION_TYPE":"U","OBJECT_NAME":"STARLINK-2464","GP_ID":"185097455"},{"ELEMENT_SET_NO":"999","SITE":"AFETR","PERIOD":"95.592","ARG_OF_PERICENTER":"89.3191","TLE_LINE1":"1 48124U 21027AJ  21263.77679347 -.00001212  00000-0 -62501-4 0  9991","MEAN_ELEMENT_THEORY":"SGP4","APOAPSIS":"547.673","NORAD_CAT_ID":"48124","MEAN_ANOMALY":"270.7871","OBJECT_TYPE":"PAYLOAD","CENTER_NAME":"EARTH","MEAN_MOTION":"15.06395068","PERIAPSIS":"546.784","SEMIMAJOR_AXIS":"6925.364","COUNTRY_CODE":"US","REV_AT_EPOCH":"2673","TLE_LINE2":"2 48124  53.0558 283.0661 0000642  89.3191 270.7871 15.06395068 26739","RCS_SIZE":"LARGE","MEAN_MOTION_DOT":"-0.00001212","MEAN_MOTION_DDOT":"0.0000000000000","EPOCH":"2021-09-20T18:38:34.955808","EPHEMERIS_TYPE":"0","LAUNCH_DATE":"2021-04-07","BSTAR":"-0.00006250100000","ECCENTRICITY":"0.00006420","INCLINATION":"53.0558","OBJECT_ID":"2021-027AJ","FILE":"3121356","GP_ID":"185124390","OBJECT_NAME":"STARLINK-2465","CLASSIFICATION_TYPE":"U","TIME_SYSTEM":"UTC","RA_OF_ASC_NODE":"283.0661","DECAY_DATE":null,"REF_FRAME":"TEME"},{"OBJECT_NAME":"STARLINK-2466","GP_ID":"185096453","REF_FRAME":"TEME","RA_OF_ASC_NODE":"294.2937","DECAY_DATE":null,"CLASSIFICATION_TYPE":"U","TIME_SYSTEM":"UTC","LAUNCH_DATE":"2021-04-07","EPOCH":"2021-09-20T12:03:06.912576","EPHEMERIS_TYPE":"0","MEAN_MOTION_DOT":"-0.00001046","MEAN_MOTION_DDOT":"0.0000000000000","INCLINATION":"53.0553","OBJECT_ID":"2021-027AK","FILE":"3121163","ECCENTRICITY":"0.00004930","BSTAR":"-0.00005139100000","SEMIMAJOR_AXIS":"6925.357","COUNTRY_CODE":"US","PERIAPSIS":"546.881","TLE_LINE2":"2 48125  53.0553 294.2937 0000493 115.2283 244.8757 15.06397220 26568","RCS_SIZE":"LARGE","REV_AT_EPOCH":"2656","TLE_LINE1":"1 48125U 21027AK  21263.50216334 -.00001046  00000-0 -51391-4 0  9996","MEAN_ELEMENT_THEORY":"SGP4","APOAPSIS":"547.563","PERIOD":"95.592","ARG_OF_PERICENTER":"115.2283","ELEMENT_SET_NO":"999","SITE":"AFETR","MEAN_MOTION":"15.06397220","CENTER_NAME":"EARTH","MEAN_ANOMALY":"244.8757","OBJECT_TYPE":"PAYLOAD","NORAD_CAT_ID":"48125"},{"NORAD_CAT_ID":"48126","OBJECT_TYPE":"PAYLOAD","MEAN_ANOMALY":"311.0596","CENTER_NAME":"EARTH","MEAN_MOTION":"15.06394012","SITE":"AFETR","ELEMENT_SET_NO":"999","ARG_OF_PERICENTER":"49.0445","PERIOD":"95.593","APOAPSIS":"547.650","MEAN_ELEMENT_THEORY":"SGP4","TLE_LINE1":"1 48126U 21027AL  21263.74454165  .00000669  00000-0  63820-4 0  9997","REV_AT_EPOCH":"2688","RCS_SIZE":"LARGE","TLE_LINE2":"2 48126  53.0484 273.2326 0000604  49.0445 311.0596 15.06394012 26888","PERIAPSIS":"546.814","SEMIMAJOR_AXIS":"6925.367","COUNTRY_CODE":"US","BSTAR":"0.00006382000000","ECCENTRICITY":"0.00006040","FILE":"3121356","OBJECT_ID":"2021-027AL","INCLINATION":"53.0484","MEAN_MOTION_DDOT":"0.0000000000000","MEAN_MOTION_DOT":"0.00000669","EPHEMERIS_TYPE":"0","EPOCH":"2021-09-20T17:52:08.398560","LAUNCH_DATE":"2021-04-07","TIME_SYSTEM":"UTC","CLASSIFICATION_TYPE":"U","DECAY_DATE":null,"RA_OF_ASC_NODE":"273.2326","REF_FRAME":"TEME","GP_ID":"185122888","OBJECT_NAME":"STARLINK-2467"},{"DECAY_DATE":null,"RA_OF_ASC_NODE":"292.9497","TIME_SYSTEM":"UTC","CLASSIFICATION_TYPE":"U","REF_FRAME":"TEME","GP_ID":"185123639","OBJECT_NAME":"STARLINK-2468","ECCENTRICITY":"0.00007350","BSTAR":"-0.00005776800000","FILE":"3121356","INCLINATION":"53.0559","OBJECT_ID":"2021-027AM","MEAN_MOTION_DDOT":"0.0000000000000","MEAN_MOTION_DOT":"-0.00001141","LAUNCH_DATE":"2021-04-07","EPHEMERIS_TYPE":"0","EPOCH":"2021-09-20T19:14:25.289376","REV_AT_EPOCH":"2660","TLE_LINE2":"2 48127  53.0559 292.9497 0000735  89.5166 270.5907 15.06390164 26602","RCS_SIZE":"LARGE","PERIAPSIS":"546.735","SEMIMAJOR_AXIS":"6925.379","COUNTRY_CODE":"US","OBJECT_TYPE":"PAYLOAD","MEAN_ANOMALY":"270.5907","NORAD_CAT_ID":"48127","MEAN_MOTION":"15.06390164","CENTER_NAME":"EARTH","ELEMENT_SET_NO":"999","SITE":"AFETR","MEAN_ELEMENT_THEORY":"SGP4","APOAPSIS":"547.753","TLE_LINE1":"1 48127U 21027AM  21263.80168159 -.00001141  00000-0 -57768-4 0  9992","PERIOD":"95.593","ARG_OF_PERICENTER":"89.5166"},{"TIME_SYSTEM":"UTC","CLASSIFICATION_TYPE":"U","DECAY_DATE":null,"RA_OF_ASC_NODE":"237.2575","REF_FRAME":"TEME","GP_ID":"185096703","OBJECT_NAME":"STARLINK-2469","BSTAR":"0.00000992800000","ECCENTRICITY":"0.00041090","FILE":"3121163","INCLINATION":"53.0439","OBJECT_ID":"2021-027AN","MEAN_MOTION_DDOT":"0.0000000000000","MEAN_MOTION_DOT":"0.00000767","EPHEMERIS_TYPE":"0","EPOCH":"2021-09-20T08:29:30.288192","LAUNCH_DATE":"2021-04-07","REV_AT_EPOCH":"2733","RCS_SIZE":"LARGE","TLE_LINE2":"2 48128  53.0439 237.2575 0004109 332.5705  27.5095 15.73163014 27333","PERIAPSIS":"347.101","SEMIMAJOR_AXIS":"6728.001","COUNTRY_CODE":"US","NORAD_CAT_ID":"48128","OBJECT_TYPE":"PAYLOAD","MEAN_ANOMALY":"27.5095","CENTER_NAME":"EARTH","MEAN_MOTION":"15.73163014","ELEMENT_SET_NO":"999","SITE":"AFETR","ARG_OF_PERICENTER":"332.5705","PERIOD":"91.535","MEAN_ELEMENT_THEORY":"SGP4","APOAPSIS":"352.630","TLE_LINE1":"1 48128U 21027AN  21263.35382278  .00000767  00000-0  99280-5 0  9990"},{"PERIAPSIS":"546.974","SEMIMAJOR_AXIS":"6925.382","COUNTRY_CODE":"US","REV_AT_EPOCH":"2660","RCS_SIZE":"LARGE","TLE_LINE2":"2 48129  53.0556 292.9815 0000395  71.5801 288.5231 15.06389011 26602","SITE":"AFETR","ELEMENT_SET_NO":"999","TLE_LINE1":"1 48129U 21027AP  21263.79431143 -.00001197  00000-0 -61523-4 0  9993","APOAPSIS":"547.521","MEAN_ELEMENT_THEORY":"SGP4","ARG_OF_PERICENTER":"71.5801","PERIOD":"95.593","MEAN_ANOMALY":"288.5231","OBJECT_TYPE":"PAYLOAD","NORAD_CAT_ID":"48129","MEAN_MOTION":"15.06389011","CENTER_NAME":"EARTH","GP_ID":"185124641","OBJECT_NAME":"STARLINK-2471","RA_OF_ASC_NODE":"292.9815","DECAY_DATE":null,"CLASSIFICATION_TYPE":"U","TIME_SYSTEM":"UTC","REF_FRAME":"TEME","MEAN_MOTION_DOT":"-0.00001197","MEAN_MOTION_DDOT":"0.0000000000000","LAUNCH_DATE":"2021-04-07","EPOCH":"2021-09-20T19:03:48.507552","EPHEMERIS_TYPE":"0","ECCENTRICITY":"0.00003950","BSTAR":"-0.00006152300000","INCLINATION":"53.0556","OBJECT_ID":"2021-027AP","FILE":"3121356"},{"ARG_OF_PERICENTER":"95.1884","PERIOD":"95.592","APOAPSIS":"547.905","MEAN_ELEMENT_THEORY":"SGP4","TLE_LINE1":"1 48130U 21027AQ  21263.31925070  .00000599  00000-0  59065-4 0  9991","ELEMENT_SET_NO":"999","SITE":"AFETR","CENTER_NAME":"EARTH","MEAN_MOTION":"15.06395393","NORAD_CAT_ID":"48130","OBJECT_TYPE":"PAYLOAD","MEAN_ANOMALY":"264.9217","SEMIMAJOR_AXIS":"6925.363","COUNTRY_CODE":"US","PERIAPSIS":"546.550","TLE_LINE2":"2 48130  53.0563 300.1223 0000978  95.1884 264.9217 15.06395393 26463","RCS_SIZE":"LARGE","REV_AT_EPOCH":"2646","EPHEMERIS_TYPE":"0","EPOCH":"2021-09-20T07:39:43.260480","LAUNCH_DATE":"2021-04-07","MEAN_MOTION_DDOT":"0.0000000000000","MEAN_MOTION_DOT":"0.00000599","FILE":"3121163","INCLINATION":"53.0563","OBJECT_ID":"2021-027AQ","BSTAR":"0.00005906500000","ECCENTRICITY":"0.00009780","OBJECT_NAME":"STARLINK-2472","GP_ID":"185097205","REF_FRAME":"TEME","TIME_SYSTEM":"UTC","CLASSIFICATION_TYPE":"U","DECAY_DATE":null,"RA_OF_ASC_NODE":"300.1223"},{"ELEMENT_SET_NO":"999","SITE":"AFETR","ARG_OF_PERICENTER":"86.3515","PERIOD":"95.592","TLE_LINE1":"1 48131U 21027AR  21263.73716902  .00000770  00000-0  70566-4 0  9990","MEAN_ELEMENT_THEORY":"SGP4","APOAPSIS":"547.588","NORAD_CAT_ID":"48131","MEAN_ANOMALY":"273.7539","OBJECT_TYPE":"PAYLOAD","MEAN_MOTION":"15.06404762","CENTER_NAME":"EARTH","PERIAPSIS":"546.810","SEMIMAJOR_AXIS":"6925.334","COUNTRY_CODE":"US","REV_AT_EPOCH":"2687","RCS_SIZE":"LARGE","TLE_LINE2":"2 48131  53.0551 273.2584 0000562  86.3515 273.7539 15.06404762 26874","MEAN_MOTION_DOT":"0.00000770","MEAN_MOTION_DDOT":"0.0000000000000","EPOCH":"2021-09-20T17:41:31.403328","EPHEMERIS_TYPE":"0","LAUNCH_DATE":"2021-04-07","BSTAR":"0.00007056600000","ECCENTRICITY":"0.00005620","INCLINATION":"53.0551","OBJECT_ID":"2021-027AR","FILE":"3121356","GP_ID":"185123139","OBJECT_NAME":"STARLINK-2473","CLASSIFICATION_TYPE":"U","TIME_SYSTEM":"UTC","RA_OF_ASC_NODE":"273.2584","DECAY_DATE":null,"REF_FRAME":"TEME"},{"FILE":"3121356","INCLINATION":"53.0560","OBJECT_ID":"2021-027AS","ECCENTRICITY":"0.00007270","BSTAR":"-0.00045343000000","LAUNCH_DATE":"2021-04-07","EPHEMERIS_TYPE":"0","EPOCH":"2021-09-20T18:47:51.681984","MEAN_MOTION_DDOT":"0.0000000000000","MEAN_MOTION_DOT":"-0.00007026","REF_FRAME":"TEME","DECAY_DATE":null,"RA_OF_ASC_NODE":"293.0341","TIME_SYSTEM":"UTC","CLASSIFICATION_TYPE":"U","OBJECT_NAME":"STARLINK-2474","GP_ID":"185124391","MEAN_MOTION":"15.06389453","CENTER_NAME":"EARTH","OBJECT_TYPE":"PAYLOAD","MEAN_ANOMALY":"273.7482","NORAD_CAT_ID":"48132","APOAPSIS":"547.749","MEAN_ELEMENT_THEORY":"SGP4","TLE_LINE1":"1 48132U 21027AS  21263.78323706 -.00007026  00000-0 -45343-3 0  9999","ARG_OF_PERICENTER":"86.3590","PERIOD":"95.593","SITE":"AFETR","ELEMENT_SET_NO":"999","TLE_LINE2":"2 48132  53.0560 293.0341 0000727  86.3590 273.7482 15.06389453 26597","RCS_SIZE":"LARGE","REV_AT_EPOCH":"2659","SEMIMAJOR_AXIS":"6925.381","COUNTRY_CODE":"US","PERIAPSIS":"546.742"}];
